NORAD_CAT_ID,OBJECT_NAME,OBJECT_TYPE,EPOCH,MEAN_MOTION,ECCENTRICITY,INCLINATION,RA_OF_ASC_NODE,ARG_OF_PERICENTER,MEAN_ANOMALY,BSTAR,MEAN_MOTION_DOT,MEAN_MOTION_DDOT,TLE_LINE0,TLE_LINE1,TLE_LINE2,SEMIMAJOR_AXIS,PERIOD,APOGEE,PERIGEE,DECAYED
53916.0,STARLINK-5051,PAYLOAD,2022-11-15 06:00:00,15.73266134,0.0003115,53.2192,359.101,14.1093,340.2345,-0.001519,-0.00209259,0.0,0 STARLINK-5051,1 53916U 22119AG  22319.25001157 -.00209259  00000-0 -15190-2 0  9994,2 53916  53.2192 359.1010 0003115  14.1093 340.2345 15.73266134  8507,6727.706999999999,91.529,351.667,347.476,0.0
53916.0,STARLINK-5051,PAYLOAD,2022-11-15 12:00:00,15.7305479,0.0003375,53.2192,357.8653,13.2965,317.7535,0.0010477,0.00148138,0.0,0 STARLINK-5051,1 53916U 22119AG  22319.50001157  .00148138  00000-0  10477-2 0  9991,2 53916  53.2192 357.8653 0003375  13.2965 317.7535 15.73054790  8548,6728.309,91.542,352.445,347.903,0.0
53916.0,STARLINK-5051,PAYLOAD,2022-11-15 14:00:01,15.73078663,0.0003385,53.2188,357.4531,12.0275,71.2206,0.0011243,0.00159392,0.0,0 STARLINK-5051,1 53916U 22119AG  22319.58334491  .00159392  00000-0  11243-2 0  9995,2 53916  53.2188 357.4531 0003385  12.0275  71.2206 15.73078663  1305,6728.241,91.54,352.384,347.829,0.0
53916.0,STARLINK-5051,PAYLOAD,2022-11-15 22:00:00,15.73162111,0.0003146,53.2188,355.8018,13.0142,159.0896,0.00063054,0.00088681,0.0,0 STARLINK-5051,1 53916U 22119AG  22319.91667824  .00088681  00000-0  63054-3 0  9991,2 53916  53.2188 355.8018 0003146  13.0142 159.0896 15.73162111  1308,6728.003000000002,91.535,351.985,347.75199999999984,0.0
53916.0,STARLINK-5051,PAYLOAD,2022-11-16 04:00:00,15.73273879,0.0003103,53.2189,354.5651,14.1372,134.635,-0.00088358,-0.00123256,0.0,0 STARLINK-5051,1 53916U 22119AG  22320.16667824 -.00123256  00000-0 -88358-3 0  9994,2 53916  53.2189 354.5651 0003103  14.1372 134.6350 15.73273879  8651,6727.685,91.529,351.63699999999994,347.462,0.0
53916.0,STARLINK-5051,PAYLOAD,2022-11-16 14:00:01,15.73044117,0.000338,53.2179,352.4996,11.3125,338.735,0.0030187,0.00443214,0.0,0 STARLINK-5051,1 53916U 22119AG  22320.58335648  .00443214  00000-0  30187-2 0  9999,2 53916  53.2179 352.4996 0003380  11.3125 338.7350 15.73044117  8716,6728.34,91.542,352.47900000000016,347.93,0.0
53916.0,STARLINK-5051,PAYLOAD,2022-11-16 20:00:01,15.73444806,0.0003091,53.218,351.2575,9.6354,316.9686,-0.0021369,-0.00293492,0.0,0 STARLINK-5051,1 53916U 22119AG  22320.83334491 -.00293492  00000-0 -21369-2 0  9997,2 53916  53.2180 351.2575 0003091   9.6354 316.9686 15.73444806  8754,6727.196999999999,91.519,351.142,346.983,0.0
53916.0,STARLINK-5051,PAYLOAD,2022-11-16 22:00:08,15.73413159,0.0003049,53.2179,350.843,9.809,69.5422,-0.0022258,-0.00304852,0.0,0 STARLINK-5051,1 53916U 22119AG  22320.91675926 -.00304852  00000-0 -22258-2 0  9998,2 53916  53.2179 350.8430 0003049   9.8090  69.5422 15.73413159  1309,6727.288000000001,91.521,351.204,347.101,0.0
53916.0,STARLINK-5051,PAYLOAD,2022-11-17 04:00:00,15.73170781,0.0003334,53.2176,349.605,17.7981,37.9255,0.00037164,0.00051804,0.0,0 STARLINK-5051,1 53916U 22119AG  22321.16667824  .00051804  00000-0  37164-3 0  9991,2 53916  53.2176 349.6050 0003334  17.7981  37.9255 15.73170781  8811,6727.978,91.535,352.087,347.6,0.0
53916.0,STARLINK-5051,PAYLOAD,2022-11-17 12:00:00,15.7321611,0.0003503,53.2192,347.9689,8.107999999999999,136.5974,-1.8136e-06,-8.79e-06,0.0,0 STARLINK-5051,1 53916U 22119AG  22321.50001157 -.00000879  00000-0 -18136-5 0  9998,2 53916  53.2192 347.9689 0003503   8.1080 136.5974 15.73216110  8866,6727.849,91.532,352.071,347.357,0.0
53916.0,STARLINK-5051,PAYLOAD,2022-11-17 14:00:01,15.73218245,0.0003489,53.2188,347.5564,6.8796,250.0648,-0.00012814,-0.00018588,0.0,0 STARLINK-5051,1 53916U 22119AG  22321.58334491 -.00018588  00000-0 -12814-3 0  9997,2 53916  53.2188 347.5564 0003489   6.8796 250.0648 15.73218245  1304,6727.843000000003,91.532,352.056,347.361,0.0
53916.0,STARLINK-5051,PAYLOAD,2022-11-17 20:00:01,15.73211029,0.0003304,53.219,346.3177,6.6464,227.0103,-0.00050158,-0.00070486,0.0,0 STARLINK-5051,1 53916U 22119AG  22321.83334491 -.00070486  00000-0 -50158-3 0  9993,2 53916  53.2190 346.3177 0003304   6.6464 227.0103 15.73211029  8917,6727.864000000001,91.533,351.952,347.506,0.0
53916.0,STARLINK-5051,PAYLOAD,2022-11-17 22:00:00,15.73144241,0.0003243,53.2188,345.905,5.1215,340.7693,0.00070738,0.00099619,0.0,0 STARLINK-5051,1 53916U 22119AG  22321.91667824  .00099619  00000-0  70738-3 0  9994,2 53916  53.2188 345.9050 0003243   5.1215 340.7693 15.73144241  1303,6728.054,91.536,352.101,347.737,0.0
53916.0,STARLINK-5051,PAYLOAD,2022-11-18 06:00:00,15.73225152,0.000336,53.2189,344.2573,6.1251,68.6647,0.00015369,0.00021029,0.0,0 STARLINK-5051,1 53916U 22119AG  22322.25001157  .00021029  00000-0  15369-3 0  9992,2 53916  53.2189 344.2573 0003360   6.1251  68.6647 15.73225152  8984,6727.823,91.532,351.949,347.42800000000005,0.0
53916.0,STARLINK-5051,PAYLOAD,2022-11-18 14:00:01,15.7325025,0.0003533,53.2185,342.6084,4.5743,159.1697,-0.0003517,-0.00049816,0.0,0 STARLINK-5051,1 53916U 22119AG  22322.58334491 -.00049816  00000-0 -35170-3 0  9996,2 53916  53.2185 342.6084 0003533   4.5743 159.1697 15.73250250  1306,6727.752,91.53,351.994,347.24,0.0
53916.0,STARLINK-5051,PAYLOAD,2022-11-18 20:00:01,15.73192118,0.0003346,53.2189,341.3695,4.1062,136.3757,0.00041954,0.00058663,0.0,0 STARLINK-5051,1 53916U 22119AG  22322.83334491  .00058663  00000-0  41954-3 0  9999,2 53916  53.2189 341.3695 0003346   4.1062 136.3757 15.73192118  9070,6727.918000000002,91.534,352.034,347.531,0.0
53916.0,STARLINK-5051,PAYLOAD,2022-11-18 22:00:00,15.73200881,0.0003324,53.2188,340.9568,4.6515,248.0682,0.00042916,0.00060055,0.0,0 STARLINK-5051,1 53916U 22119AG  22322.91667824  .00060055  00000-0  42916-3 0  9994,2 53916  53.2188 340.9568 0003324   4.6515 248.0682 15.73200881  1300,6727.893,91.533,351.994,347.521,0.0
53916.0,STARLINK-5051,PAYLOAD,2022-11-19 14:00:01,15.73159883,0.0003689,53.2185,337.6597,8.0731,62.5552,0.00041987,0.00058632,0.0,0 STARLINK-5051,1 53916U 22119AG  22323.58334491  .00058632  00000-0  41987-3 0  9994,2 53916  53.2185 337.6597 0003689   8.0731  62.5552 15.73159883  9199,6728.01,91.536,352.357,347.39300000000014,0.0
53916.0,STARLINK-5051,PAYLOAD,2022-11-19 22:00:00,15.73212015,0.0003443,53.2183,336.0085,10.8455,148.6909,-0.000113,-0.00016465,0.0,0 STARLINK-5051,1 53916U 22119AG  22323.91667824 -.00016465  00000-0 -11300-3 0  9996,2 53916  53.2183 336.0085 0003443  10.8455 148.6909 15.73212015  1308,6727.861,91.532,352.042,347.41,0.0
53916.0,STARLINK-5051,PAYLOAD,2022-11-20 06:00:00,15.73201874,0.0003608,53.2183,334.3607,13.2819,235.1908,-0.00021484,-0.00030679,0.0,0 STARLINK-5051,1 53916U 22119AG  22324.25001157 -.00030679  00000-0 -21484-3 0  9992,2 53916  53.2183 334.3607 0003608  13.2819 235.1908 15.73201874  9291,6727.89,91.533,352.182,347.327,0.0
53916.0,STARLINK-5051,PAYLOAD,2022-11-20 14:00:01,15.73158351,0.0003718,53.218,332.7116,11.3753,326.0172,0.00015744,0.00021497,0.0,0 STARLINK-5051,1 53916U 22119AG  22324.58334491  .00021497  00000-0  15744-3 0  9996,2 53916  53.2180 332.7116 0003718  11.3753 326.0172 15.73158351  1301,6728.014,91.536,352.38,347.37699999999984,0.0
53916.0,STARLINK-5051,PAYLOAD,2022-11-20 22:00:00,15.73177763,0.0003462,53.2183,331.0602,11.3238,54.9581,-0.00010384,-0.00015161,0.0,0 STARLINK-5051,1 53916U 22119AG  22324.91667824 -.00015161  00000-0 -10384-3 0  9990,2 53916  53.2183 331.0602 0003462  11.3238  54.9581 15.73177763  1309,6727.959,91.534,352.153,347.494,0.0
53916.0,STARLINK-5051,PAYLOAD,2022-11-21 06:00:00,15.7316289,0.0003665,53.2183,329.4123,11.1464,144.0512,0.00020001,0.00027503,0.0,0 STARLINK-5051,1 53916U 22119AG  22325.25001157  .00027503  00000-0  20001-3 0  9997,2 53916  53.2183 329.4123 0003665  11.1464 144.0512 15.73162890  9456,6728.001,91.535,352.332,347.4,0.0
53916.0,STARLINK-5051,PAYLOAD,2022-11-21 14:00:01,15.73201647,0.0003768,53.2179,327.7630000000001,11.0997,232.9887,0.00026545,0.00036809,0.0,0 STARLINK-5051,1 53916U 22119AG  22325.58334491  .00036809  00000-0  26545-3 0  9991,2 53916  53.2179 327.7630 0003768  11.0997 232.9887 15.73201647  1301,6727.89,91.533,352.291,347.22,0.0
53916.0,STARLINK-5051,PAYLOAD,2022-11-21 22:00:00,15.73208331,0.0003532,53.2179,326.1118,12.6534,320.3861,0.00068131,0.00096154,0.0,0 STARLINK-5051,1 53916U 22119AG  22325.91667824  .00096154  00000-0  68131-3 0  9993,2 53916  53.2179 326.1118 0003532  12.6534 320.3861 15.73208331  9554,6727.871,91.533,352.11300000000006,347.36,0.0
53916.0,STARLINK-5051,PAYLOAD,2022-11-22 06:00:02,15.733016,0.0003665,53.2178,324.464,9.8571,52.2245,-0.0010972999999999,-0.00152599,0.0,0 STARLINK-5051,1 53916U 22119AG  22326.25002315 -.00152599  00000-0 -10973-2 0  9997,2 53916  53.2178 324.4640 0003665   9.8571  52.2245 15.73301600  9617,6727.606,91.527,351.936,347.005,0.0
53916.0,STARLINK-5051,PAYLOAD,2022-11-22 14:00:01,15.73212129,0.0003718,53.2175,322.8142,7.8855,143.1551,0.0001361,0.00018535,0.0,0 STARLINK-5051,1 53916U 22119AG  22326.58335648  .00018535  00000-0  13610-3 0  9992,2 53916  53.2175 322.8142 0003718   7.8855 143.1551 15.73212129  9667,6727.861,91.532,352.227,347.224,0.0
53916.0,STARLINK-5051,PAYLOAD,2022-11-22 22:00:00,15.73226092,0.0003477,53.2178,321.1627,7.8443,232.0884,-9.0414e-05,-0.00013311,0.0,0 STARLINK-5051,1 53916U 22119AG  22326.91667824 -.00013311  00000-0 -90414-4 0  9990,2 53916  53.2178 321.1627 0003477   7.8443 232.0884 15.73226092  1309,6727.821,91.532,352.025,347.347,0.0
53916.0,STARLINK-5051,PAYLOAD,2022-11-23 06:00:00,15.73234122,0.0003705,53.2179,319.515,6.7438,322.1355,-0.00028877,-0.0004103,0.0,0 STARLINK-5051,1 53916U 22119AG  22327.25001157 -.00041030  00000-0 -28877-3 0  9991,2 53916  53.2179 319.5150 0003705   6.7438 322.1355 15.73234122  9763,6727.7980000000025,91.531,352.156,347.17,0.0
